{"type": "FeatureCollection", "features": [ {"type": "Feature", "properties": {"norad_id": 34736, "name": "COSMOS 2251 DEB", "group": "cosmos-2251-debris", "lat": -28.478843315256615, "lon": 25.28007651163092, "alt_km": 415.1742502375746, "timestamp": "2025-12-13T15:35:12.499136+00:00", "meta": {"OBJECT_NAME": "COSMOS 2251 DEB", "OBJECT_ID": "1993-036ZE", "EPOCH": "2025-12-12T21:06:12.453120", "MEAN_MOTION": 15.47785011, "ECCENTRICITY": 0.00174093, "INCLINATION": 74.0011, "RA_OF_ASC_NODE": 35.9224, "ARG_OF_PERICENTER": 346.1541, "MEAN_ANOMALY": 13.9191, "EPHEMERIS_TYPE": 0, "CLASSIFICATION_TYPE": "U", "NORAD_CAT_ID": 34736, "ELEMENT_SET_NO": 999, "REV_AT_EPOCH": 88450, "BSTAR": 0.0089588396, "MEAN_MOTION_DOT": 0.00497862, "MEAN_MOTION_DDOT": 0}, "tle": {"line1": "1 34736U 93036ZE  25346.87931080  .00497862  00000+0  89588-2 0  9995", "line2": "2 34736  74.0011  35.9224 0017409 346.1541  13.9191 15.47785011884506"}}, "geometry": {"type": "Point", "coordinates": [25.28007651163092, -28.478843315256615]}}, {"type": "Feature", "properties": {"norad_id": 34738, "name": "COSMOS 2251 DEB", "group": "cosmos-2251-debris", "lat": -72.37553631347336, "lon": 26.031697941413913, "alt_km": 714.1275028985947, "timestamp": "2025-12-13T15:35:12.499146+00:00", "meta": {"OBJECT_NAME": "COSMOS 2251 DEB", "OBJECT_ID": "1993-036ZG", "EPOCH": "2025-12-12T16:51:48.967776", "MEAN_MOTION": 14.46302501, "ECCENTRICITY": 0.00473848, "INCLINATION": 74.0145, "RA_OF_ASC_NODE": 143.3353, "ARG_OF_PERICENTER": 289.6078, "MEAN_ANOMALY": 85.4045, "EPHEMERIS_TYPE": 0, "CLASSIFICATION_TYPE": "U", "NORAD_CAT_ID": 34738, "ELEMENT_SET_NO": 999, "REV_AT_EPOCH": 87858, "BSTAR": 0.00052258745, "MEAN_MOTION_DOT": 1.872e-05, "MEAN_MOTION_DDOT": 0}, "tle": {"line1": "1 34738U 93036ZG  25346.70265009  .00001872  00000+0  52259-3 0  9998", "line2": "2 34738  74.0145 143.3353 0047384 289.6078  85.4045 14.46302501878584"}}, "geometry": {"type": "Point", "coordinates": [26.031697941413913, -72.37553631347336]}}, {"type": "Feature", "properties": {"norad_id": 34750, "name": "COSMOS 2251 DEB", "group": "cosmos-2251-debris", "lat": 65.15801287706063, "lon": -17.95847514608311, "alt_km": 662.206100271942, "timestamp": "2025-12-13T15:35:12.499156+00:00", "meta": {"OBJECT_NAME": "COSMOS 2251 DEB", "OBJECT_ID": "1993-036ZU", "EPOCH": "2025-12-12T18:16:50.437632", "MEAN_MOTION": 14.61323696, "ECCENTRICITY": 0.00388342, "INCLINATION": 74.1085, "RA_OF_ASC_NODE": 201.7093, "ARG_OF_PERICENTER": 154.7653, "MEAN_ANOMALY": 326.4831, "EPHEMERIS_TYPE": 0, "CLASSIFICATION_TYPE": "U", "NORAD_CAT_ID": 34750, "ELEMENT_SET_NO": 999, "REV_AT_EPOCH": 88231, "BSTAR": 0.0015269949, "MEAN_MOTION_DOT": 7.603e-05, "MEAN_MOTION_DDOT": 0}, "tle": {"line1": "1 34750U 93036ZU  25346.76169488  .00007603  00000+0  15270-2 0  9991", "line2": "2 34750  74.1085 201.7093 0038834 154.7653 326.4831 14.61323696882315"}}, "geometry": {"type": "Point", "coordinates": [-17.95847514608311, 65.15801287706063]}}, {"type": "Feature", "properties": {"norad_id": 34752, "name": "COSMOS 2251 DEB", "group": "cosmos-2251-debris", "lat": 15.623260738087984, "lon": 3.3527090951874126, "alt_km": 579.010736300519, "timestamp": "2025-12-13T15:35:12.499166+00:00", "meta": {"OBJECT_NAME": "COSMOS 2251 DEB", "OBJECT_ID": "1993-036ZW", "EPOCH": "2025-12-12T18:42:16.112160", "MEAN_MOTION": 14.99929065, "ECCENTRICITY": 0.00477814, "INCLINATION": 74.0137, "RA_OF_ASC_NODE": 0.5243, "ARG_OF_PERICENTER": 128.9856, "MEAN_ANOMALY": 231.5602, "EPHEMERIS_TYPE": 0, "CLASSIFICATION_TYPE": "U", "NORAD_CAT_ID": 34752, "ELEMENT_SET_NO": 999, "REV_AT_EPOCH": 89850, "BSTAR": 0.0012905698, "MEAN_MOTION_DOT": 0.00016411, "MEAN_MOTION_DDOT": 0}, "tle": {"line1": "1 34752U 93036ZW  25346.77935315  .00016411  00000+0  12906-2 0  9994", "line2": "2 34752  74.0137   0.5243 0047781 128.9856 231.5602 14.99929065898508"}}, "geometry": {"type": "Point", "coordinates": [3.3527090951874126, 15.623260738087984]}}, {"type": "Feature", "properties": {"norad_id": 34754, "name": "COSMOS 2251 DEB", "group": "cosmos-2251-debris", "lat": 22.720308800974365, "lon": 39.033619021277154, "alt_km": 777.166251878919, "timestamp": "2025-12-13T15:35:12.499176+00:00", "meta": {"OBJECT_NAME": "COSMOS 2251 DEB", "OBJECT_ID": "1993-036ZY", "EPOCH": "2025-12-12T19:23:10.948704", "MEAN_MOTION": 14.40481938, "ECCENTRICITY": 0.00295669, "INCLINATION": 74.0302, "RA_OF_ASC_NODE": 227.4767, "ARG_OF_PERICENTER": 343.5565, "MEAN_ANOMALY": 129.6269, "EPHEMERIS_TYPE": 0, "CLASSIFICATION_TYPE": "U", "NORAD_CAT_ID": 34754, "ELEMENT_SET_NO": 999, "REV_AT_EPOCH": 88134, "BSTAR": 0.00032285849, "MEAN_MOTION_DOT": 1.006e-05, "MEAN_MOTION_DDOT": 0}, "tle": {"line1": "1 34754U 93036ZY  25346.80776561  .00001006  00000+0  32286-3 0  9994", "line2": "2 34754  74.0302 227.4767 0029566 343.5565 129.6269 14.40481938881346"}}, "geometry": {"type": "Point", "coordinates": [39.033619021277154, 22.720308800974365]}}, {"type": "Feature", "properties": {"norad_id": 34755, "name": "COSMOS 2251 DEB", "group": "cosmos-2251-debris", "lat": -26.791132209585964, "lon": -79.80779242613055, "alt_km": 795.4736474858073, "timestamp": "2025-12-13T15:35:12.499186+00:00", "meta": {"OBJECT_NAME": "COSMOS 2251 DEB", "OBJECT_ID": "1993-036ZZ", "EPOCH": "2025-12-12T13:37:24.158208", "MEAN_MOTION": 13.50558708, "ECCENTRICITY": 0.04082885, "INCLINATION": 73.9258, "RA_OF_ASC_NODE": 290.3013, "ARG_OF_PERICENTER": 310.1509, "MEAN_ANOMALY": 162.2918, "EPHEMERIS_TYPE": 0, "CLASSIFICATION_TYPE": "U", "NORAD_CAT_ID": 34755, "ELEMENT_SET_NO": 999, "REV_AT_EPOCH": 82521, "BSTAR": 0.0021769945, "MEAN_MOTION_DOT": 2.326e-05, "MEAN_MOTION_DDOT": 0}, "tle": {"line1": "1 34755U 93036ZZ  25346.56764072  .00002326  00000+0  21770-2 0  9993", "line2": "2 34755  73.9258 290.3013 0408288 310.1509 162.2918 13.50558708825216"}}, "geometry": {"type": "Point", "coordinates": [-79.80779242613055, -26.791132209585964]}}, {"type": "Feature", "properties": {"norad_id": 34756, "name": "COSMOS 2251 DEB", "group": "cosmos-2251-debris", "lat": -66.20593690622687, "lon": 62.28737747453973, "alt_km": 849.5297371375682, "timestamp": "2025-12-13T15:35:12.499196+00:00", "meta": {"OBJECT_NAME": "COSMOS 2251 DEB", "OBJECT_ID": "1993-036AAA", "EPOCH": "2025-12-11T14:45:00.607104", "MEAN_MOTION": 13.67238778, "ECCENTRICITY": 0.03449804, "INCLINATION": 74.0026, "RA_OF_ASC_NODE": 106.2197, "ARG_OF_PERICENTER": 342.2771, "MEAN_ANOMALY": 16.6544, "EPHEMERIS_TYPE": 0, "CLASSIFICATION_TYPE": "U", "NORAD_CAT_ID": 34756, "ELEMENT_SET_NO": 999, "REV_AT_EPOCH": 83406, "BSTAR": 0.0012772103, "MEAN_MOTION_DOT": 1.595e-05, "MEAN_MOTION_DDOT": 0}, "tle": {"line1": "1 34756U 93036AAA 25345.61459036  .00001595  00000+0  12772-2 0  9999", "line2": "2 34756  74.0026 106.2197 0344980 342.2771  16.6544 13.67238778834065"}}, "geometry": {"type": "Point", "coordinates": [62.28737747453973, -66.20593690622687]}}, {"type": "Feature", "properties": {"norad_id": 34758, "name": "COSMOS 2251 DEB", "group": "cosmos-2251-debris", "lat": 9.539905431867554, "lon": -59.22262937134783, "alt_km": 861.3539558205512, "timestamp": "2025-12-13T15:35:12.499205+00:00", "meta": {"OBJECT_NAME": "COSMOS 2251 DEB", "OBJECT_ID": "1993-036AAC", "EPOCH": "2025-12-12T21:51:41.899968", "MEAN_MOTION": 13.58068869, "ECCENTRICITY": 0.03812519, "INCLINATION": 74.1074, "RA_OF_ASC_NODE": 299.2213, "ARG_OF_PERICENTER": 62.9041, "MEAN_ANOMALY": 301.0425, "EPHEMERIS_TYPE": 0, "CLASSIFICATION_TYPE": "U", "NORAD_CAT_ID": 34758, "ELEMENT_SET_NO": 999, "REV_AT_EPOCH": 82912, "BSTAR": 0.0018803076, "MEAN_MOTION_DOT": 2.168e-05, "MEAN_MOTION_DDOT": 0}, "tle": {"line1": "1 34758U 93036AAC 25346.91090162  .00002168  00000+0  18803-2 0  9994", "line2": "2 34758  74.1074 299.2213 0381251  62.9041 301.0425 13.58068869829123"}}, "geometry": {"type": "Point", "coordinates": [-59.22262937134783, 9.539905431867554]}}, {"type": "Feature", "properties": {"norad_id": 34760, "name": "COSMOS 2251 DEB", "group": "cosmos-2251-debris", "lat": 67.61330071749532, "lon": 76.81571662702208, "alt_km": 846.8372496386128, "timestamp": "2025-12-13T15:35:12.499216+00:00", "meta": {"OBJECT_NAME": "COSMOS 2251 DEB", "OBJECT_ID": "1993-036AAE", "EPOCH": "2025-12-11T20:57:04.029120", "MEAN_MOTION": 14.19565488, "ECCENTRICITY": 0.0096741, "INCLINATION": 74.0637, "RA_OF_ASC_NODE": 303.9064, "ARG_OF_PERICENTER": 356.2172, "MEAN_ANOMALY": 33.6085, "EPHEMERIS_TYPE": 0, "CLASSIFICATION_TYPE": "U", "NORAD_CAT_ID": 34760, "ELEMENT_SET_NO": 999, "REV_AT_EPOCH": 86676, "BSTAR": 0.0010971, "MEAN_MOTION_DOT": 2.4e-05, "MEAN_MOTION_DDOT": 0}, "tle": {"line1": "1 34760U 93036AAE 25345.87296330  .00002400  00000+0  10971-2 0  9993", "line2": "2 34760  74.0637 303.9064 0096741 356.2172  33.6085 14.19565488866766"}}, "geometry": {"type": "Point", "coordinates": [76.81571662702208, 67.61330071749532]}}, {"type": "Feature", "properties": {"norad_id": 34761, "name": "COSMOS 2251 DEB", "group": "cosmos-2251-debris", "lat": 73.45029103716718, "lon": 75.63021431069075, "alt_km": 741.0062862184368, "timestamp": "2025-12-13T15:35:12.499225+00:00", "meta": {"OBJECT_NAME": "COSMOS 2251 DEB", "OBJECT_ID": "1993-036AAF", "EPOCH": "2025-12-12T19:09:27.421920", "MEAN_MOTION": 14.38049473, "ECCENTRICITY": 0.00364098, "INCLINATION": 74.0297, "RA_OF_ASC_NODE": 2.6837, "ARG_OF_PERICENTER": 36.7521, "MEAN_ANOMALY": 323.6119, "EPHEMERIS_TYPE": 0, "CLASSIFICATION_TYPE": "U", "NORAD_CAT_ID": 34761, "ELEMENT_SET_NO": 999, "REV_AT_EPOCH": 87650, "BSTAR": 0.0009152545, "MEAN_MOTION_DOT": 2.767e-05, "MEAN_MOTION_DDOT": 0}, "tle": {"line1": "1 34761U 93036AAF 25346.79823405  .00002767  00000+0  91525-3 0  9996", "line2": "2 34761  74.0297   2.6837 0036409  36.7521 323.6119 14.38049473876508"}}, "geometry": {"type": "Point", "coordinates": [75.63021431069075, 73.45029103716718]}}]}